BEIDOU-3 M1 (C19)       
1 43001U 17069A   25333.92264388 -.00000029  00000+0  00000+0 0  9999
2 43001  56.5156  69.6582 0008678 303.4593  56.4648  1.86230864 54897
BEIDOU-3 M2 (C20)       
1 43002U 17069B   25333.86099363 -.00000029  00000+0  00000+0 0  9992
2 43002  56.5152  69.6958 0006071 333.1141  26.8616  1.86230621 54881
BEIDOU-3 M7 (C27)       
1 43107U 18003A   25334.14117229 -.00000051  00000+0  00000+0 0  9996
2 43107  54.5080 309.2532 0002551  71.4114 288.6146  1.86232304 53646
BEIDOU-3 M8 (C28)       
1 43108U 18003B   25333.54902235 -.00000048  00000+0  00000+0 0  9995
2 43108  54.5014 309.2567 0004845 273.2539  86.6905  1.86230820 53643
BEIDOU-3 M4 (C22)       
1 43207U 18018A   25330.76916615 -.00000013  00000+0  00000+0 0  9991
2 43207  56.4719  69.8337 0003950  19.0320 340.9952  1.86230999 52970
BEIDOU-3 M3 (C21)       
1 43208U 18018B   25329.76178844 -.00000014  00000+0  00000+0 0  9995
2 43208  56.4705  69.8711 0005935 317.5562  42.4090  1.86231215 52958
BEIDOU-3 M9 (C29)       
1 43245U 18029A   25333.19956014 -.00000046  00000+0  00000+0 0  9998
2 43245  54.3786 306.9410 0001837 271.5998  88.3783  1.86228028 52175
BEIDOU-3 M10 (C30)      
1 43246U 18029B   25333.13488410 -.00000046  00000+0  00000+0 0  9993
2 43246  54.3758 306.9698 0003914 358.6776   1.3207  1.86228967 52158
